AEROCUBE 6A             
1 40045U 14033AM  26068.93083119  .00007845  00000+0  67890-3 0  9996
2 40045  97.7128 237.0691 0038730 349.0559  10.9816 14.96848607631764
STARLINK-5764           
1 55602U 23020AK  26067.22126573  .00006149  00000+0  46910-3 0  9996
2 55602  43.0041   0.0348 0001077 296.8029  63.2703 15.02595794168843
